[{"OBJECT_NAME":"STARLINK-35307","OBJECT_ID":"2025-232J","EPOCH":"2026-03-09T11:39:48.211488","MEAN_MOTION":15.30196168,"ECCENTRICITY":0.00015414,"INCLINATION":53.1598,"RA_OF_ASC_NODE":104.9099,"ARG_OF_PERICENTER":83.6196,"MEAN_ANOMALY":276.4981,"EPHEMERIS_TYPE":0,"CLASSIFICATION_TYPE":"U","NORAD_CAT_ID":66013,"ELEMENT_SET_NO":999,"REV_AT_EPOCH":2340,"BSTAR":0.00068360071,"MEAN_MOTION_DOT":0.00019939,"MEAN_MOTION_DDOT":0},{"OBJECT_NAME":"AIST-2 (RS43)","OBJECT_ID":"2013-015D","EPOCH":"2026-03-09T22:52:25.813056","MEAN_MOTION":15.25079544,"ECCENTRICITY":0.00239979,"INCLINATION":64.8687,"RA_OF_ASC_NODE":221.5348,"ARG_OF_PERICENTER":248.8384,"MEAN_ANOMALY":111.0181,"EPHEMERIS_TYPE":0,"CLASSIFICATION_TYPE":"U","NORAD_CAT_ID":39133,"ELEMENT_SET_NO":999,"REV_AT_EPOCH":70876,"BSTAR":0.00037899099,"MEAN_MOTION_DOT":9.402e-5,"MEAN_MOTION_DDOT":0}]
